BEIJING 1               
1 28890U 05043A   22270.41820973  .00000186  00000+0  46868-4 0  9996
2 28890  98.1309  31.0137 0014513 211.0873 148.9477 14.61496139902038
HJ-1A                   
1 33320U 08041A   22270.45280129  .00000326  00000+0  51909-4 0  9996
2 33320  97.6718 298.6980 0019564 260.1380  99.7626 14.77920346757458
HJ-1B                   
1 33321U 08041B   22270.40402091  .00000749  00000+0  11018-3 0  9991
2 33321  97.6882 302.4218 0032862 279.8018  79.9485 14.77887096757446
YAOGAN 4                
1 33446U 08061A   22270.44173294  .00000567  00000+0  86487-4 0  9996
2 33446  97.8223 207.4958 0016600 159.1721 201.0170 14.77475316744659
DEIMOS-1                
1 35681U 09041A   22270.49052251  .00000289  00000+0  53255-4 0  9990
2 35681  97.7040 116.2806 0000129 156.1996 203.9220 14.72114912706783
UK-DMC 2                
1 35683U 09041C   22270.42382180  .00000482  00000+0  85094-4 0  9993
2 35683  97.7063  78.0303 0001147  62.7190 297.4144 14.71501503706504
RISAT 1                 
1 38248U 12017A   22270.49924000  .00003628  00000+0  21212-3 0  9996
2 38248  97.5530 280.7807 0002153 265.7673  94.3312 15.12504593574266
DMC3-FM1                
1 40715U 15032A   22270.40716398  .00000365  00000+0  52336-4 0  9995
2 40715  97.8315 155.1494 0005689 173.6545 186.4731 14.82199246388397
DMC3-FM2                
1 40716U 15032B   22270.43019153  .00000368  00000+0  52666-4 0  9993
2 40716  97.8355 155.8662 0007486 180.1491 179.9708 14.82191702388408
DMC3-FM3                
1 40717U 15032C   22270.38386305  .00000361  00000+0  51787-4 0  9990
2 40717  97.8387 156.7764 0009534 180.1041 180.0160 14.82219293388393
